{"type": "FeatureCollection", "features": [ {"type": "Feature", "properties": {"norad_id": 38552, "name": "METEOSAT-10 (MSG-3)", "group": "weather", "lat": -1.6604891726715536, "lon": 38.19065886356964, "alt_km": 35787.49600709103, "timestamp": "2025-12-04T21:36:15.516440+00:00", "meta": {"OBJECT_NAME": "METEOSAT-10 (MSG-3)", "OBJECT_ID": "2012-035B", "EPOCH": "2025-12-04T01:44:31.731072", "MEAN_MOTION": 1.00272508, "ECCENTRICITY": 8.021e-05, "INCLINATION": 4.2071, "RA_OF_ASC_NODE": 61.7359, "ARG_OF_PERICENTER": 221.6691, "MEAN_ANOMALY": 175.985, "EPHEMERIS_TYPE": 0, "CLASSIFICATION_TYPE": "U", "NORAD_CAT_ID": 38552, "ELEMENT_SET_NO": 999, "REV_AT_EPOCH": 4890, "BSTAR": 0, "MEAN_MOTION_DOT": 8e-08, "MEAN_MOTION_DDOT": 0}, "tle": {"line1": "1 38552U 12035B   25338.07258948  .00000008  00000+0  00000+0 0  9994", "line2": "2 38552   4.2071  61.7359 0000802 221.6691 175.9850  1.00272508 48908"}}, "geometry": {"type": "Point", "coordinates": [38.19065886356964, -1.6604891726715536]}}, {"type": "Feature", "properties": {"norad_id": 38771, "name": "METOP-B", "group": "weather", "lat": -44.480003642437715, "lon": 37.62026147822827, "alt_km": 828.9130945820461, "timestamp": "2025-12-04T21:36:15.516451+00:00", "meta": {"OBJECT_NAME": "METOP-B", "OBJECT_ID": "2012-049A", "EPOCH": "2025-12-04T15:03:31.194432", "MEAN_MOTION": 14.21403832, "ECCENTRICITY": 0.00025528, "INCLINATION": 98.6811, "RA_OF_ASC_NODE": 28.7233, "ARG_OF_PERICENTER": 162.3303, "MEAN_ANOMALY": 197.7963, "EPHEMERIS_TYPE": 0, "CLASSIFICATION_TYPE": "U", "NORAD_CAT_ID": 38771, "ELEMENT_SET_NO": 999, "REV_AT_EPOCH": 68562, "BSTAR": 0.0001575907, "MEAN_MOTION_DOT": 3.01e-06, "MEAN_MOTION_DDOT": 0}, "tle": {"line1": "1 38771U 12049A   25338.62744438  .00000301  00000+0  15759-3 0  9994", "line2": "2 38771  98.6811  28.7233 0002552 162.3303 197.7963 14.21403832685625"}}, "geometry": {"type": "Point", "coordinates": [37.62026147822827, -44.480003642437715]}}, {"type": "Feature", "properties": {"norad_id": 39216, "name": "INSAT-3D", "group": "weather", "lat": 1.4016638375513515, "lon": 167.52097027617745, "alt_km": 35783.515634532385, "timestamp": "2025-12-04T21:36:15.516463+00:00", "meta": {"OBJECT_NAME": "INSAT-3D", "OBJECT_ID": "2013-038B", "EPOCH": "2025-12-04T14:20:31.071840", "MEAN_MOTION": 1.00273216, "ECCENTRICITY": 0.00017793, "INCLINATION": 1.4223, "RA_OF_ASC_NODE": 85.085, "ARG_OF_PERICENTER": 156.7246, "MEAN_ANOMALY": 176.5152, "EPHEMERIS_TYPE": 0, "CLASSIFICATION_TYPE": "U", "NORAD_CAT_ID": 39216, "ELEMENT_SET_NO": 999, "REV_AT_EPOCH": 4512, "BSTAR": 0, "MEAN_MOTION_DOT": -3.25e-06, "MEAN_MOTION_DDOT": 0}, "tle": {"line1": "1 39216U 13038B   25338.59758185 -.00000325  00000+0  00000+0 0  9994", "line2": "2 39216   1.4223  85.0850 0001779 156.7246 176.5152  1.00273216 45127"}}, "geometry": {"type": "Point", "coordinates": [167.52097027617745, 1.4016638375513515]}}, {"type": "Feature", "properties": {"norad_id": 39260, "name": "FENGYUN 3C", "group": "weather", "lat": 3.010649788225936, "lon": -43.48670524034642, "alt_km": 850.5281101551518, "timestamp": "2025-12-04T21:36:15.516474+00:00", "meta": {"OBJECT_NAME": "FENGYUN 3C", "OBJECT_ID": "2013-052A", "EPOCH": "2025-12-04T14:48:17.874720", "MEAN_MOTION": 14.15692529, "ECCENTRICITY": 0.00138783, "INCLINATION": 98.4755, "RA_OF_ASC_NODE": 316.6932, "ARG_OF_PERICENTER": 220.4019, "MEAN_ANOMALY": 139.6126, "EPHEMERIS_TYPE": 0, "CLASSIFICATION_TYPE": "U", "NORAD_CAT_ID": 39260, "ELEMENT_SET_NO": 999, "REV_AT_EPOCH": 63103, "BSTAR": 0.00014369147, "MEAN_MOTION_DOT": 2.41e-06, "MEAN_MOTION_DDOT": 0}, "tle": {"line1": "1 39260U 13052A   25338.61687355  .00000241  00000+0  14369-3 0  9995", "line2": "2 39260  98.4755 316.6932 0013878 220.4019 139.6126 14.15692529631030"}}, "geometry": {"type": "Point", "coordinates": [-43.48670524034642, 3.010649788225936]}}, {"type": "Feature", "properties": {"norad_id": 40069, "name": "METEOR-M 2", "group": "weather", "lat": -4.061000492033356, "lon": 136.17805359852525, "alt_km": 822.0173301441155, "timestamp": "2025-12-04T21:36:15.516484+00:00", "meta": {"OBJECT_NAME": "METEOR-M 2", "OBJECT_ID": "2014-037A", "EPOCH": "2025-12-04T13:58:59.445408", "MEAN_MOTION": 14.21381628, "ECCENTRICITY": 0.00047248, "INCLINATION": 98.4894, "RA_OF_ASC_NODE": 316.4803, "ARG_OF_PERICENTER": 236.723, "MEAN_ANOMALY": 123.3495, "EPHEMERIS_TYPE": 0, "CLASSIFICATION_TYPE": "U", "NORAD_CAT_ID": 40069, "ELEMENT_SET_NO": 999, "REV_AT_EPOCH": 59167, "BSTAR": 0.00014726177, "MEAN_MOTION_DOT": 2.8e-06, "MEAN_MOTION_DDOT": 0}, "tle": {"line1": "1 40069U 14037A   25338.58263247  .00000280  00000+0  14726-3 0  9994", "line2": "2 40069  98.4894 316.4803 0004724 236.7230 123.3495 14.21381628591679"}}, "geometry": {"type": "Point", "coordinates": [136.17805359852525, -4.061000492033356]}}, {"type": "Feature", "properties": {"norad_id": 40267, "name": "HIMAWARI-8", "group": "weather", "lat": 0.004910434138855003, "lon": 178.67358709793814, "alt_km": 35788.128989448815, "timestamp": "2025-12-04T21:36:15.516496+00:00", "meta": {"OBJECT_NAME": "HIMAWARI-8", "OBJECT_ID": "2014-060A", "EPOCH": "2025-12-04T14:23:45.762144", "MEAN_MOTION": 1.00270217, "ECCENTRICITY": 0.00013169, "INCLINATION": 0.0105, "RA_OF_ASC_NODE": 98.274, "ARG_OF_PERICENTER": 187.1183, "MEAN_ANOMALY": 144.897, "EPHEMERIS_TYPE": 0, "CLASSIFICATION_TYPE": "U", "NORAD_CAT_ID": 40267, "ELEMENT_SET_NO": 999, "REV_AT_EPOCH": 4080, "BSTAR": 0, "MEAN_MOTION_DOT": -2.61e-06, "MEAN_MOTION_DDOT": 0}, "tle": {"line1": "1 40267U 14060A   25338.59983521 -.00000261  00000+0  00000+0 0  9991", "line2": "2 40267   0.0105  98.2740 0001316 187.1183 144.8970  1.00270217 40802"}}, "geometry": {"type": "Point", "coordinates": [178.67358709793814, 0.004910434138855003]}}, {"type": "Feature", "properties": {"norad_id": 40367, "name": "FENGYUN 2G", "group": "weather", "lat": 4.572773624973953, "lon": 137.592770268328, "alt_km": 35795.65912523634, "timestamp": "2025-12-04T21:36:15.516508+00:00", "meta": {"OBJECT_NAME": "FENGYUN 2G", "OBJECT_ID": "2014-090A", "EPOCH": "2025-12-04T07:21:07.807968", "MEAN_MOTION": 1.00267095, "ECCENTRICITY": 0.00031226, "INCLINATION": 5.1453, "RA_OF_ASC_NODE": 75.1954, "ARG_OF_PERICENTER": 194.2721, "MEAN_ANOMALY": 13.9009, "EPHEMERIS_TYPE": 0, "CLASSIFICATION_TYPE": "U", "NORAD_CAT_ID": 40367, "ELEMENT_SET_NO": 999, "REV_AT_EPOCH": 4004, "BSTAR": 0, "MEAN_MOTION_DOT": -2.89e-06, "MEAN_MOTION_DDOT": 0}, "tle": {"line1": "1 40367U 14090A   25338.30634037 -.00000289  00000+0  00000+0 0  9999", "line2": "2 40367   5.1453  75.1954 0003122 194.2721  13.9009  1.00267095 40045"}}, "geometry": {"type": "Point", "coordinates": [137.592770268328, 4.572773624973953]}}, {"type": "Feature", "properties": {"norad_id": 40732, "name": "METEOSAT-11 (MSG-4)", "group": "weather", "lat": -1.1032591762407131, "lon": 47.46387531289082, "alt_km": 35791.54889032569, "timestamp": "2025-12-04T21:36:15.516520+00:00", "meta": {"OBJECT_NAME": "METEOSAT-11 (MSG-4)", "OBJECT_ID": "2015-034A", "EPOCH": "2025-12-04T13:46:19.349184", "MEAN_MOTION": 1.00264986, "ECCENTRICITY": 0.00010296, "INCLINATION": 2.715, "RA_OF_ASC_NODE": 72.024, "ARG_OF_PERICENTER": 117.8054, "MEAN_ANOMALY": 99.8358, "EPHEMERIS_TYPE": 0, "CLASSIFICATION_TYPE": "U", "NORAD_CAT_ID": 40732, "ELEMENT_SET_NO": 999, "REV_AT_EPOCH": 526, "BSTAR": 0, "MEAN_MOTION_DOT": 7.5e-07, "MEAN_MOTION_DDOT": 0}, "tle": {"line1": "1 40732U 15034A   25338.57383506  .00000075  00000+0  00000+0 0  9997", "line2": "2 40732   2.7150  72.0240 0001029 117.8054  99.8358  1.00264986  5267"}}, "geometry": {"type": "Point", "coordinates": [47.46387531289082, -1.1032591762407131]}}, {"type": "Feature", "properties": {"norad_id": 41105, "name": "ELEKTRO-L 2", "group": "weather", "lat": -4.687293731491416, "lon": 23.69838423413251, "alt_km": 35793.94323222942, "timestamp": "2025-12-04T21:36:15.516532+00:00", "meta": {"OBJECT_NAME": "ELEKTRO-L 2", "OBJECT_ID": "2015-074A", "EPOCH": "2025-12-04T01:40:17.137056", "MEAN_MOTION": 1.00269777, "ECCENTRICITY": 0.00040203, "INCLINATION": 6.2023, "RA_OF_ASC_NODE": 72.9293, "ARG_OF_PERICENTER": 197.7104, "MEAN_ANOMALY": 173.0548, "EPHEMERIS_TYPE": 0, "CLASSIFICATION_TYPE": "U", "NORAD_CAT_ID": 41105, "ELEMENT_SET_NO": 999, "REV_AT_EPOCH": 3655, "BSTAR": 0, "MEAN_MOTION_DOT": -1.05e-06, "MEAN_MOTION_DDOT": 0}, "tle": {"line1": "1 41105U 15074A   25338.06964279 -.00000105  00000+0  00000+0 0  9997", "line2": "2 41105   6.2023  72.9293 0004020 197.7104 173.0548  1.00269777 36559"}}, "geometry": {"type": "Point", "coordinates": [23.69838423413251, -4.687293731491416]}}, {"type": "Feature", "properties": {"norad_id": 41752, "name": "INSAT-3DR", "group": "weather", "lat": 0.04472913425008688, "lon": 111.96881329024345, "alt_km": 35843.32692060064, "timestamp": "2025-12-04T21:36:15.516544+00:00", "meta": {"OBJECT_NAME": "INSAT-3DR", "OBJECT_ID": "2016-054A", "EPOCH": "2025-12-04T14:04:47.578656", "MEAN_MOTION": 1.00269621, "ECCENTRICITY": 0.00145265, "INCLINATION": 0.0713, "RA_OF_ASC_NODE": 88.5764, "ARG_OF_PERICENTER": 180.632, "MEAN_ANOMALY": 89.672, "EPHEMERIS_TYPE": 0, "CLASSIFICATION_TYPE": "U", "NORAD_CAT_ID": 41752, "ELEMENT_SET_NO": 999, "REV_AT_EPOCH": 3386, "BSTAR": 0, "MEAN_MOTION_DOT": -6.2e-07, "MEAN_MOTION_DDOT": 0}, "tle": {"line1": "1 41752U 16054A   25338.58666179 -.00000062  00000+0  00000+0 0  9991", "line2": "2 41752   0.0713  88.5764 0014526 180.6320  89.6720  1.00269621 33867"}}, "geometry": {"type": "Point", "coordinates": [111.96881329024345, 0.04472913425008688]}}]}